0 OV1-13 R/B
1 03212U 68026D   13286.14472574  .00000172  00000-0  26479-3 0  3887
2 03212 099.9401 351.2166 3840781 318.4522 017.9879 07.27504192204950
0 OV1-13 R/B
1 03212U 68026D   13291.09387436  .00000165  00000-0  25639-3 0  3899
2 03212 099.9373 352.8242 3840172 314.4882 019.9019 07.27506646205314
0 OV1-13 R/B
1 03212U 68026D   13295.21816931  .00000133  00000-0  21107-3 0  3907
2 03212 099.9363 354.1625 3839803 311.1832 021.5414 07.27508214205615
